#cP2018  7 10  0  0  0.00000000     192 ORBIT IGS14 HLM  IGS
## 2009 172800.00000000   900.00000000 58309 0.0000000000000
+   31   G01G02G03G05G06G07G08G09G10G11G12G13G14G15G16G17G18
+        G19G20G21G22G23G24G25G26G27G28G29G30G31G32  0  0  0
+          0  0  0  0  0  0  0  0  0  0  0  0  0  0  0  0  0
+          0  0  0  0  0  0  0  0  0  0  0  0  0  0  0  0  0
+          0  0  0  0  0  0  0  0  0  0  0  0  0  0  0  0  0
++         4  4  3  4  4  4  3  3  3  4  3  4  3  3  3  3  5
++         3  3  3  3  3  3  3  3  3  4  3  3  4  3  0  0  0
++         0  0  0  0  0  0  0  0  0  0  0  0  0  0  0  0  0
++         0  0  0  0  0  0  0  0  0  0  0  0  0  0  0  0  0
++         0  0  0  0  0  0  0  0  0  0  0  0  0  0  0  0  0
%c G  cc GPS ccc cccc cccc cccc cccc ccccc ccccc ccccc ccccc
%c cc cc ccc ccc cccc cccc cccc cccc ccccc ccccc ccccc ccccc
%f  1.2500000  1.025000000  0.00000000000  0.000000000000000
%f  0.0000000  0.000000000  0.00000000000  0.000000000000000
%i    0    0    0    0      0      0      0      0         0
%i    0    0    0    0      0      0      0      0         0
/* ULTRA ORBIT COMBINATION 20093_00 (58310.000) FROM:       
/* cou emu esu gfu ngu siu usu whu                          
/* REFERENCED TO emu CLOCK AND TO WEIGHTED MEAN POLE:       
/* PCV:IGS14_2007 OL/AL:FES2004  NONE     Y  ORB:CMB CLK:CMB
*  2018  7 11 14 15  0.00000000
PG01  13552.538115 -22636.416740   -844.313059    -64.715029 14 13 13 212  P   P
PG02 -18165.697826   8078.546157 -16936.662891     60.838486  9 15 12 228  P   P
PG03  11929.561506 -13326.665977 -19637.180348    103.947270 14 12 10 207  P   P
PG05 -26191.461719   2719.696109   4165.979959     -4.767985 11 14 16 272  P   P
PG06 -12684.916975  -7929.944920 -21917.045563    388.182980 14 14  7 228  P   P
PG07   1783.561413 -21910.863511  14789.647515    160.711336 14 11 13 213  P   P
PG08  11047.791881 -10752.001136  21654.633192   -107.804398  8 11 10 259  P   P
PG09  -6012.067257 -24238.234813  -9053.072509    513.878646  8 10 11 228  P   P
PG10  18735.760713  11217.649443  15274.384463    188.846527 13 11 12 198  P   P
PG11   9458.994980 -23371.362392   8055.069779   -730.530111 12 13 11 252  P   P
PG12 -16830.087451  10277.034284 -17891.613691    321.682289 11 13  8 262  P   P
PG13 -15311.312337   1549.433321  21541.465795    -92.557880  8 12  5 209  P   P
PG14  17268.652212  13430.469866 -14881.506947    -97.607844  8 13 12 204  P   P
PG15  -9108.001040  13996.005861  20366.470190   -350.975964  8 11 10 212  P   P
PG16  26531.192039    755.331767   3451.833713     18.177972  9 14 13 254  P   P
PG17 -14894.123023 -20839.335841  -6868.236236    -79.352976 12 10 10 249  P   P
PG18  16787.061584 -18838.825251   7525.667847     32.322462 14 16 15 240  P   P
PG19 -16873.993187 -13842.559891 -15321.380920   -421.294083  9 13 12 243  P   P
PG20   9493.379236  14355.297429  20132.003116    512.196667 14 10 11 232  P   P
PG21   2901.688927  20606.543231  17320.741191   -369.066111 13  9  8 244  P   P
PG22  19567.849612 -11035.591379 -13912.564293   -454.346561 11 13 12 230  P   P
PG23   3522.406213 -19451.016638 -17239.424413   -214.651891 11 13 11 211  P   P
PG24 -14884.684021  21538.344755   3294.819683    -52.399526  9 11 13 338  P   P
PG25  -1264.723375  14968.916237 -22081.315925   -614.462440 13 14 14 226  P   P
PG26  25188.163064   5203.474308  -6913.254112    -87.270083 10 12 14 214  P   P
PG27  16827.619091   2176.437078  20418.714675    361.590711 10 12  8 225  P   P
PG28 -15122.409134 -13599.733505  17675.609126    730.414623 15  9 13 230  P   P
PG29   3099.053644  24060.035486 -10851.178402    416.723630 14  7 11 259  P   P
PG30  -6671.006055 -15956.785995  20126.986855     51.893019 12  8  5 241  P   P
PG31  14148.348064   5941.309379 -21672.307536    108.478988 14 14  6 112  P   P
PG32  16361.305509  19783.369123  -6947.826160   -477.340667  7  9 11 243  P   P
*  2018  7 11 14 30  0.00000000
PG01  13721.937619 -22437.109575   2051.230183    -64.718451 14 13 13 208  P   P
PG02 -17365.133184   6084.513810 -18508.225785     60.828795  9 15 11 230  P   P
PG03  14093.829930 -13199.243011 -18231.733807    103.952797 14 12 11 208  P   P
PG05 -26524.368923   2453.922664   1371.353985     -4.767486  9 14 16 273  P   P
PG06 -11428.068234 -10090.906430 -21717.144628    388.179655 14 14  8 228  P   P
PG07   2774.869795 -23121.266490  12553.464419    160.705612 14 10 13 215  P   P
PG08  12340.027348  -8632.331060  21917.978500   -107.805562  8 11 10 260  P   P
PG09  -5198.171189 -23352.987317 -11548.562745    513.878109  8 10 11 229  P   P
PG10  16892.983106  11383.203123  17173.353339    188.846420 14 11 11 196  P   P
PG11   9710.933409 -22203.954743  10499.012219   -730.528595 12 13 11 252  P   P
PG12 -18726.862809  10035.165792 -16010.091545    321.680002 10 13  9 262  P   P
PG13 -16226.709620   -722.901224  20909.289865    -92.557481  8 11  5 210  P   P
PG14  17791.801837  14973.544929 -12690.723694    -97.607906  8 12 12 205  P   P
PG15 -10565.847516  12056.406575  20924.963875   -350.975313  8 11 10 214  P   P
PG16  26763.229372    924.524550    582.064002     18.176645  9 13 13 254  P   P
PG17 -15035.523311 -21516.717774  -4067.208712    -79.349438 12 10 10 248  P   P
PG18  16540.465609 -17755.448158  10118.439780     32.326477 14 17 15 238  P   P
PG19 -17387.951487 -15347.253926 -13095.734162   -421.291287  9 12 12 242  P   P
PG20   7139.866628  14702.686023  20829.251905    512.197287 14  9 10 233  P   P
PG21   1947.936901  22081.029280  15451.358615   -369.061263 13  9 10 243  P   P
PG22  21091.878691 -10838.907131 -11700.975767   -454.357453 10 14 12 233  P   P
PG23   4781.054784 -17718.597831 -18751.937897   -214.651399 11 13 10 213  P   P
PG24 -14918.250473  20895.785710   6059.656371    -52.399965  9 11 13 337  P   P
PG25  -3733.869429  14934.034872 -21801.351591   -614.467696 14 14 13 226  P   P
PG26  24255.867109   5463.080469  -9538.244730    -87.259149 10 12 14 212  P   P
PG27  17902.869256   4178.292574  19182.668214    361.588792 10 13  8 220  P   P
PG28 -13122.013977 -13519.019016  19321.959296    730.417093 15  9 13 229  P   P
PG29   2345.297266  22901.241974 -13280.593928    416.717403 14  7 10 259  P   P
PG30  -5342.136072 -17769.213095  18955.344694     51.888793 11  8  6 240  P   P
PG31  12833.498070   8057.561039 -21769.806664    108.476615 14 14  6 119  P   P
PG32  16468.905011  20464.460399  -4201.432594   -477.333683  7  8 11 243  P   P
*  2018  7 11 14 45  0.00000000
PG01  13753.957598 -21952.976200   4910.731552    -64.721874 14 13 14 205  P   P
PG02 -16598.389161   3903.188742 -19744.138604     60.819099 10 15 10 232  P   P
PG03  16085.819821 -13174.266720 -16512.427109    103.958323 13 12 11 209  P   P
PG05 -26555.469425   2180.870341  -1446.591067     -4.766990  7 14 16 274  P   P
PG06 -10308.638880 -12277.100392 -21142.469564    388.176329 14 14 10 229  P   P
PG07   3582.788385 -24146.228330  10098.694102    160.699886 14 10 14 218  P   P
PG08  13747.816986  -6579.083022  21805.586520   -107.806726  8 12 10 262  P   P
PG09  -4188.806237 -22285.895819 -13845.429141    513.877569  8 10 10 229  P   P
PG10  14863.477702  11657.924360  18779.545208    188.846314 14 10 11 194  P   P
PG11  10004.829786 -20778.870442  12759.149238   -730.527077 12 13 10 252  P   P
PG12 -20407.884189   9899.556778 -13854.394742    321.677712 10 13 10 262  P   P
PG13 -17219.550192  -2860.361131  19913.932627    -92.557082  8 11  7 209  P   P
PG14  18268.195850  16255.359631 -10279.813183    -97.607967  9 12 13 205  P   P
PG15 -12135.405670  10155.161443  21115.164128   -350.974664  8 11  9 215  P   P
PG16  26681.544659   1072.285517  -2297.488915     18.175313  8 13 13 254  P   P
PG17 -15052.633350 -21905.581613  -1196.156920    -79.345899 12 10 10 246  P   P
PG18  16231.693702 -16396.564552  12531.651016     32.330498 13 17 15 238  P   P
PG19 -17860.217884 -16590.868792 -10646.601481   -421.288489 10 12 13 241  P   P
PG20   4746.425398  15169.607661  21164.691418    512.197905 14  8 10 234  P   P
PG21   1154.576569  23403.923672  13329.428309   -369.056417 13  8 10 241  P   P
PG22  22361.560321 -10683.211323  -9285.323325   -454.368344  9 14 12 236  P   P
PG23   6206.774496 -15922.201909 -19929.785325   -214.650910 12 13  9 215  P   P
PG24 -14856.455051  19973.776079   8718.044549    -52.400402  8 11 13 336  P   P
PG25  -6151.575451  15030.988641 -21151.626183   -614.472956 14 13 12 227  P   P
PG26  23051.987746   5793.182204 -12000.358829    -87.248216 11 11 14 211  P   P
PG27  18997.250762   5983.634299  17616.872845    361.586874 10 13  8 213  P   P
PG28 -10959.090191 -13548.035756  20651.316762    730.419559 15  8 13 228  P   P
PG29   1396.912144  21558.985066 -15481.889399    416.711174 14  8  9 260  P   P
PG30  -4177.683692 -19514.597267  17456.241422     51.884568 11  8  7 240  P   P
PG31  11634.043748  10234.324656 -21491.212541    108.474240 14 14  8 131  P   P
PG32  16436.801932  20877.635000  -1383.061287   -477.326699  7  6 11 243  P   P
EOF
